Location Name,City,Number of Courts,County,Latitude,Longitude
Hal Brady Recreation Complex,Alachua,6 courts,Alachua,29.796996,-82.480531
Eastmonte Park,Altamonte Springs,4 courts,Seminole,28.662728,-81.371908
Sanlando Park,Altamonte Springs,10 courts,Seminole,28.662728,-81.371908
Westmonte Park,Altamonte Springs,3 courts,Seminole,28.662728,-81.371908
Lake Brantley South Gym,Altamonte Springs,2 courts,Seminole,28.662728,-81.371908
River Hall Country Club,Alva,4 courts,Lee,26.714657,-81.635055
Anna Maria Island Community Center,Anna Maria,3 courts,Manatee,27.530833,-82.733611
The Rowdy Pickle,Atlantic Beach,1 court,Duval,30.348258,-81.415866
Donner Park Community Center,Atlantic Beach,6 courts,Duval,30.348258,-81.415866
Sevilla Condominium,Atlantic Beach,4 courts,Duval,30.348258,-81.415866
Auburndale Community Center,Auburndale,8 courts,Polk,28.072443,-81.812234
Del Webb Naples,Ave Maria,12 courts,Collier,26.33623,-81.43804
Reflections,Avon Park,2 courts,Highlands,27.600085,-81.501486
South Florida Community College,Avon Park,2 courts,Highlands,27.600085,-81.501486
Haulover Park,Bal Harbour,4 courts,Miami-Dade,25.89365,-80.12644
Dimmitt Community Center,Belleair,3 courts,Pinellas,27.9659,-82.8062
clearwater beach rec center,Belleair Beach,2 courts,Pinellas,27.9231,-82.8432
Beverly Hills Pickleball and Tennis Court,Beverly Hills,2 courts,Citrus,28.9166,-82.4583
Central Ridge Community Center,Beverly Hills,2 courts,Citrus,28.9166,-82.4583
Pine Ridge Property Owners,Beverly Hills,1 court,Citrus,28.9166,-82.4583
Sunshine Key Rv Resort,Big Pine Key,2 courts,Monroe,24.679996,-81.362029
Big Pine Key Park,Big Pine Key,2 courts,Monroe,24.679996,-81.362029
Blue Heron Community Park,Big Pine Key,3 courts,Monroe,24.679996,-81.362029
Yacht & Racquet Club of Boca Raton,Boca Raton,6 courts,Palm Beach,26.3583,-80.0833
Hidden Lakes Park,Boca Raton,2 courts,Palm Beach,26.3583,-80.0833
Sand Pine Park,Boca Raton,2 courts,Palm Beach,26.3583,-80.0833
Patch Reef Park,Boca Raton,6 courts,Palm Beach,26.3583,-80.0833
Boca Tierra Park,Boca Raton,2 courts,Palm Beach,26.3583,-80.0833
University Woodlands Park,Boca Raton,2 courts,Palm Beach,26.3583,-80.0833
Woodfield Country Club,Boca Raton,8 courts,Palm Beach,26.3583,-80.0833
Broken Sound Country Club,Boca Raton,4 courts,Palm Beach,26.3583,-80.0833
Sea Ranch Club Of Boca Raton,Boca Raton,2 courts,Palm Beach,26.3583,-80.0833
El Rio Park,Boca Raton,4 courts,Palm Beach,26.3583,-80.0833
Boca Bridges Racquet Club,Boca Raton,4 courts,Palm Beach,26.3583,-80.0833
Burt Aaronson South County Regional Park,Boca Raton,6 courts,Palm Beach,26.3583,-80.0833
Mansfield Courts,Boca Raton,4 courts,Palm Beach,26.3583,-80.0833
St. Andrews Country Club,Boca Raton,2 courts,Palm Beach,26.3583,-80.0833
South County Regional Park,Boca Raton,6 courts,Palm Beach,26.3583,-80.0833
The Boca Raton,Boca Raton,4 courts,Palm Beach,26.3583,-80.0833
Hillsboro El Rio Park South,Boca Raton,4 courts,Palm Beach,26.3583,-80.0833
Sugar Sand Park,Boca Raton,6 courts,Palm Beach,26.3583,-80.0833
Boca Chase,Boca Raton,2 courts,Palm Beach,26.3583,-80.0833
Hillsboro El Rio Park North,Boca Raton,4 courts,Palm Beach,26.3583,-80.0833
Boca Raton Century Village,Boca Raton,4 courts,Palm Beach,26.3583,-80.0833
Life Time - Boca Raton,Boca Raton,8 courts,Palm Beach,26.3583,-80.0833
Boca Grove Golf and Tennis Club,Boca Raton,5 courts,Palm Beach,26.3583,-80.0833
Lotus Racquet Club,Boca Raton,6 courts,Palm Beach,26.3583,-80.0833
The Polo Club,Boca Raton,8 courts,Palm Beach,26.3583,-80.0833
Citrus Park,Bonita Springs,4 courts,Lee,26.3869,-81.733
City Of  Bonita Springs Recreation Center,Bonita Springs,2 courts,Lee,26.3869,-81.733
Bonita Springs YMCA,Bonita Springs,10 courts,Lee,26.3869,-81.733
Pelican Landing Community Center,Bonita Springs,6 courts,Lee,26.3869,-81.733
Imperial Bonita Estates,Bonita Springs,4 courts,Lee,26.3869,-81.733
Riverwalk Park,Bonita Springs,6 courts,Lee,26.3869,-81.733
Highland Woods Country Club,Bonita Springs,4 courts,Lee,26.3869,-81.733
Torrey Trails RV & Golf Resort,Bowling Green,2 courts,Hardee,27.627738,-81.845058
Quail Ridge Country Club,Boynton Beach,2 courts,Palm Beach,26.525,-80.0666
YMCA Boynton Beach,Boynton Beach,2 courts,Palm Beach,26.525,-80.0666
Aberdeen Country Club,Boynton Beach,15 courts,Palm Beach,26.525,-80.0666
Coral Lakes,Boynton Beach,2 courts,Palm Beach,26.525,-80.0666
Aberdeen East,Boynton Beach,6 courts,Palm Beach,26.525,-80.0666
Tuscany Bay Clubhouse,Boynton Beach,3 courts,Palm Beach,26.525,-80.0666
Cascades Lakes,Boynton Beach,4 courts,Palm Beach,26.525,-80.0666
Avalon Estates,Boynton Beach,2 courts,Palm Beach,26.525,-80.0666
Limetree Condominium,Boynton Beach,3 courts,Palm Beach,26.525,-80.0666
Valencia Isles Clubhouse,Boynton Beach,2 courts,Palm Beach,26.525,-80.0666
Ezell Hester  Jr. Community Center,Boynton Beach,2 courts,Palm Beach,26.525,-80.0666
Mandel JCC,Boynton Beach,3 courts,Palm Beach,26.525,-80.0666
Palm Isles,Boynton Beach,6 courts,Palm Beach,26.525,-80.0666
Venetian Isle Tennis Center,Boynton Beach,4 courts,Palm Beach,26.525,-80.0666
Valencia Sound,Boynton Beach,11 courts,Palm Beach,26.525,-80.0666
Valencia Bay,Boynton Beach,6 courts,Palm Beach,26.525,-80.0666
Valencia Cove,Boynton Beach,4 courts,Palm Beach,26.525,-80.0666
Valencia Reserve Club,Boynton Beach,4 courts,Palm Beach,26.525,-80.0666
Valencia Pointe Club,Boynton Beach,4 courts,Palm Beach,26.525,-80.0666
Boynton Beach Tennis Center,Boynton Beach,4 courts,Palm Beach,26.525,-80.0666
Caloosa Park,Boynton Beach,8 courts,Palm Beach,26.525,-80.0666
Bradenton Tropical Palms,Bradenton,3 courts,Manatee,27.502778,-82.513889
The Racquet Club El Conquistador,Bradenton,6 courts,Manatee,27.502778,-82.513889
Bradenton YMCA,Bradenton,2 courts,Manatee,27.502778,-82.513889
Bradenton Country Club,Bradenton,6 courts,Manatee,27.502778,-82.513889
17th Avenue West Park,Bradenton,6 courts,Manatee,27.502778,-82.513889
Country Club East,Bradenton,8 courts,Manatee,27.502778,-82.513889
Heritage Harbour H.O.A,Bradenton,5 courts,Manatee,27.502778,-82.513889
Jesse P Miller,Bradenton,2 courts,Manatee,27.502778,-82.513889
Arbor Terrace Rv Resort,Bradenton,2 courts,Manatee,27.502778,-82.513889
G T Bray Recreation Complex,Bradenton,20 courts,Manatee,27.502778,-82.513889
Jessie P. Miller Elementary School,Bradenton,4 courts,Manatee,27.502778,-82.513889
John H Marble Recreation Complex,Bradenton,2 courts,Manatee,27.502778,-82.513889
Lakewood National,Bradenton,4 courts,Manatee,27.502778,-82.513889
Lakewood National Golf Club,Bradenton,4 courts,Manatee,27.502778,-82.513889
Saints Peter & Paul the Apostles Catholic Church,Bradenton,3 courts,Manatee,27.502778,-82.513889
Lakewood Ranch Community Park,Bradenton,5 courts,Manatee,27.502778,-82.513889
W D Sugg Middle School,Bradenton,5 courts,Manatee,27.502778,-82.513889
Lakewood Ranch High School Park,Bradenton,6 courts,Manatee,27.502778,-82.513889
Martha B King Middle School,Bradenton,3 courts,Manatee,27.502778,-82.513889
Palma Sola Harbour Condominiums,Bradenton,2 courts,Manatee,27.502778,-82.513889
River Dance Condominiums,Bradenton,3 courts,Manatee,27.502778,-82.513889
University Place Community Park,Bradenton,2 courts,Manatee,27.502778,-82.513889
Lakewood Ranch High School,Bradenton,6 courts,Manatee,27.502778,-82.513889
Pine Bay Forest Condominiums,Bradenton,2 courts,Manatee,27.502778,-82.513889
Lou Barolo South Park,Bradenton Beach,1 court,Manatee,27.515149,-82.721027
The MAC Gym at FBC Brandon,Brandon,2 courts,Hillsborough,27.9378,-82.2861
Brandon Sports and Aquatic Center,Brandon,10 courts,Hillsborough,27.9378,-82.2861
High Point Community Property Owners,Brooksville,8 courts,Hernando,28.565805,-82.373674
Hernando Park,Brooksville,6 courts,Hernando,28.565805,-82.373674
Brookridge,Brooksville,2 courts,Hernando,28.565805,-82.373674
Belle Parc RV Resort,Brooksville,3 courts,Hernando,28.565805,-82.373674
Old Dixie Community Park,Bunnell,2 courts,Flagler,29.45616,-81.324431
Grand Reserve,Bunnell,4 courts,Flagler,29.45616,-81.324431
Nancy Hanson Recreation Complex,Cape Canaveral,6 courts,Brevard,28.39034,-80.604267
Sands Park,Cape Coral,4 courts,Lee,26.57746,-81.952243
Camelot Park,Cape Coral,4 courts,Lee,26.57746,-81.952243
Faith Presbyterian Church,Cape Coral,4 courts,Lee,26.57746,-81.952243
Four Freedoms Park,Cape Coral,2 courts,Lee,26.57746,-81.952243
Lake Meade Park,Cape Coral,6 courts,Lee,26.57746,-81.952243
Burton Memorial Park,Cape Coral,1 court,Lee,26.57746,-81.952243
Jim Jeffers Park,Cape Coral,2 courts,Lee,26.57746,-81.952243
Joe Stonis Park,Cape Coral,6 courts,Lee,26.57746,-81.952243
Lake Kennedy Community Park,Cape Coral,16 courts,Lee,26.57746,-81.952243
Gator Trails Park,Cape Coral,2 courts,Lee,26.57746,-81.952243
Giuffrida Park,Cape Coral,2 courts,Lee,26.57746,-81.952243
St James Bay Golf and Pickleball Resort,Carrabelle,8 courts,Franklin,29.869205,-84.635845
Cedar Key Elementary,Cedar Key,2 courts,Levy,29.171006,-83.016793
Ross Norton Recreation Center,Clearwater,2 courts,Pinellas,27.9799,-82.7806
Countryside Recreation Center,Clearwater,4 courts,Pinellas,27.9799,-82.7806
The Long Center,Clearwater,6 courts,Pinellas,27.9799,-82.7806
Clearwater Beach Library and Recreation Complex,Clearwater,3 courts,Pinellas,27.9799,-82.7806
Del Oro Park,Clearwater,2 courts,Pinellas,27.9799,-82.7806
Henry L. McMullen Tennis Complex,Clearwater,6 courts,Pinellas,27.9799,-82.7806
Ed Wright Park,Clearwater,2 courts,Pinellas,27.9799,-82.7806
Island In The Sun,Clearwater,2 courts,Pinellas,27.9799,-82.7806
Woodgate Park,Clearwater,2 courts,Pinellas,27.9799,-82.7806
Greenwood Recreation Center,Clearwater,2 courts,Pinellas,27.9799,-82.7806
McKay Play Field,Clearwater,4 courts,Pinellas,27.9799,-82.7806
Morningside Recreation Complex,Clearwater,4 courts,Pinellas,27.9799,-82.7806
Lake Magic RV Resort,Clermont,3 courts,Lake,28.552541,-81.757407
Thousand Trails Rv Preserve,Clermont,8 courts,Lake,28.552541,-81.757407
Outdoor Resorts At Orlando,Clermont,4 courts,Lake,28.552541,-81.757407
Clermont Arts And Recreation Center,Clermont,6 courts,Lake,28.552541,-81.757407
Jack Peeples Community Park,Cleveland,12 courts,Charlotte,26.9584,-81.9897
Civic Park Behind The Clewiston Inn,Clewiston,4 courts,Hendry,26.717171,-80.949249
Cocoa West,Cocoa,2 courts,Brevard,28.367183,-80.746455
Walter Butler Community Center,Cocoa,3 courts,Brevard,28.367183,-80.746455
Cocoa Beach Rec Center,Cocoa Beach,2 courts,Brevard,28.332451,-80.612066
Cameron Barkley (Palmetto) Park,Cocoa Beach,1 court,Brevard,28.332451,-80.612066
Ocean Landings Resort And Racquet Club,Cocoa Beach,2 courts,Brevard,28.332451,-80.612066
Ramp Road Park,Cocoa Beach,1 court,Brevard,28.332451,-80.612066
Diadem Pickleball Complex,Coconut Creek,9 courts,Broward,26.2441,-80.2066
Coconut Creek Community Center,Coconut Creek,2 courts,Broward,26.2441,-80.2066
The Groves Golf & Country Club,Connerton,6 courts,Pasco,28.28862,-82.48769
University of Miami,Coral Gables,4 courts,Miami-Dade,25.71029,-80.26865
Salvadore Park Tennis Center,Coral Gables,2 courts,Miami-Dade,25.71029,-80.26865
Riverside Park,Coral Springs,9 courts,Miami-Dade,26.27251,-80.25418
The country Club Of Coral Springs,Coral Springs,4 courts,Miami-Dade,26.27251,-80.25418
Wakulla County Community Center,Crawfordville,3 courts,Wakulla,30.175833,-84.375278
Jones house,Crawfordville,1 court,Wakulla,30.175833,-84.375278
Crescent City Park,Crescent City,2 courts,Putnam,29.445438,-81.557909
Crescent City Junior/Senior Hogh,Crescent City,4 courts,Putnam,29.445438,-81.557909
Twin Hills Park,Crestview,6 courts,Okaloosa,30.77061,-86.553678
Jim LeGrone Memorial Park,Crystal River,4 courts,Citrus,28.9593,-82.6259
Meadowcrest - Lower Courts,Crystal River,4 courts,Citrus,28.9593,-82.6259
Bicentennial Park,Crystal River,2 courts,Citrus,28.9593,-82.6259
Saga Bay Park,Cutler Bay,4 courts,Miami-Dade,25.5808,-80.3469
Lake Jovita Golf And Country Club,Dade City,4 courts,Pasco,28.4297,-82.2082
Academy at the Farm,Dade City,0 courts,Pasco,28.4297,-82.2082
Travelers Rest RV and Golf Resort,Dade City,7 courts,Pasco,28.4297,-82.2082
Price Park,Dade City,2 courts,Pasco,28.4297,-82.2082
Dade City Armory,Dade City,3 courts,Pasco,28.4297,-82.2082
Tom Fellows Community Center,Davenport,6 courts,Polk,28.22,-81.6205
Ridgewood Lakes,Davenport,6 courts,Polk,28.22,-81.6205
Del Webb Orlando,Davenport,6 courts,Polk,28.22,-81.6205
Deer Creek Rv And Golf Resort,Davenport,2 courts,Polk,28.22,-81.6205
Pine Island Park,Davie,6 courts,Broward,26.0765,-80.2521
Sica Hall Community Center,Daytona Beach,2 courts,Volusia,29.201168,-81.037071
Halifax River Yacht Club,Daytona Beach,4 courts,Volusia,29.201168,-81.037071
Pictona at Holly Hill,Daytona Beach,49 courts,Volusia,29.201168,-81.037071
Schnebly Recreation Center,Daytona Beach,1 court,Volusia,29.201168,-81.037071
Mainland High School,Daytona Beach,6 courts,Volusia,29.201168,-81.037071
Pelican Bay Sports Club,Daytona Beach,4 courts,Volusia,29.201168,-81.037071
The Salvation Army Daytona Beach,Daytona Beach,2 courts,Volusia,29.201168,-81.037071
Embry-Riddle Aeronautical University - Daytona Beach,Daytona Beach,6 courts,Volusia,29.201168,-81.037071
Midtown Cultural & Educational Center,Daytona Beach,3 courts,Volusia,29.201168,-81.037071
Latitude Margaritaville Daytona Beach,Daytona Beach,10 courts,Volusia,29.201168,-81.037071
Mcelroy Park,Daytona Beach,10 courts,Volusia,29.201168,-81.037071
Derbyshire Park,Daytona Beach,4 courts,Volusia,29.201168,-81.037071
Bill Keller Park,DeBary,2 courts,Volusia,28.8713,-81.3289
Victoria Gardens - 55+ Community,DeLand,8 courts,Volusia,29.02659,-81.334853
David E Disney Tennis Center,DeLand,6 courts,Volusia,29.02659,-81.334853
Pick A Ball Sports Complex,Deerfield Beach,19 courts,Broward,26.309556,-80.099173
Oveta Mckeithen Recreational Complex - Robb Gym,Deerfield Beach,3 courts,Broward,26.309556,-80.099173
Century Village Deerfield,Deerfield Beach,4 courts,Broward,26.309556,-80.099173
Constitution Park,Deerfield Beach,2 courts,Broward,26.309556,-80.099173
Pines Of Delray West,Delray Beach,1 court,Palm Beach,26.456445,-80.079321
Four Seasons of Delray Beach,Delray Beach,2 courts,Palm Beach,26.456445,-80.079321
Huntington Pointe Association,Delray Beach,6 courts,Palm Beach,26.456445,-80.079321
Addison Reserve,Delray Beach,4 courts,Palm Beach,26.456445,-80.079321
Addison Reserve Country Club,Delray Beach,4 courts,Palm Beach,26.456445,-80.079321
Emerald Pointe Clubhouse,Delray Beach,2 courts,Palm Beach,26.456445,-80.079321
Las Verdes,Delray Beach,4 courts,Palm Beach,26.456445,-80.079321
Catherine Strong Splash Park,Delray Beach,6 courts,Palm Beach,26.456445,-80.079321
Gleneagles Country Club,Delray Beach,8 courts,Palm Beach,26.456445,-80.079321
Pompey Park Community Center Gym,Delray Beach,2 courts,Palm Beach,26.456445,-80.079321
Delray Beach Pickleball Courts,Delray Beach,8 courts,Palm Beach,26.456445,-80.079321
Delray Beach Community Center,Delray Beach,3 courts,Palm Beach,26.456445,-80.079321
Villaggio Reserve,Delray Beach,4 courts,Palm Beach,26.456445,-80.079321
Delaire Country Club,Delray Beach,2 courts,Palm Beach,26.456445,-80.079321
Polo Trace,Delray Beach,4 courts,Palm Beach,26.456445,-80.079321
Valencia Falls,Delray Beach,2 courts,Palm Beach,26.456445,-80.079321
Lakes Of Delray,Delray Beach,8 courts,Palm Beach,26.456445,-80.079321
Wes Crile Community Recreation Center,Deltona,3 courts,Volusia,28.898897,-81.247307
Harris M Saxon Community Center and Park,Deltona,4 courts,Volusia,28.898897,-81.247307
Buck Destin Park,Destin,2 courts,Okaloosa,30.392,-86.4834
Destin Community Center,Destin,3 courts,Okaloosa,30.392,-86.4834
Destin United Methodist Church,Destin,4 courts,Okaloosa,30.392,-86.4834
Island Oasis Pickleball Cub,Donner,52 courts,Duval,30.3369,-81.4115
Dunedin Community Center,Dunedin,2 courts,Pinellas,28.019444,-82.771944
Eagle Scout Park,Dunedin,2 courts,Pinellas,28.019444,-82.771944
Highlander Park & Aquatic Complex,Dunedin,4 courts,Pinellas,28.019444,-82.771944
"Martin Luther King, Jr. Recreation Center",Dunedin,2 courts,Pinellas,28.019444,-82.771944
Ernie Mills Park,Dunnellon,1 court,Marion,29.0488,-82.4611
Spruce Creek Preserve,Dunnellon,4 courts,Marion,29.0488,-82.4611
Hacienda Del Rio,Edgewater,4 courts,Volusia,28.981801,-80.910344
Park Forest Courts,Englewood,2 courts,Sarasota,26.966743,-82.359886
Englewood Florida YMCA,Englewood,4 courts,Sarasota,26.966743,-82.359886
Pickle in Paradise,Englewood,1 court,Sarasota,26.966743,-82.359886
Boca Royale Racquet Club,Englewood,4 courts,Sarasota,26.966743,-82.359886
Tringali Recreation Center,Englewood,4 courts,Sarasota,26.966743,-82.359886
Ann & Chuck Dever Regional Park Rec Center,Englewood,12 courts,Sarasota,26.966743,-82.359886
Englewood Sports Complex,Englewood,18 courts,Sarasota,26.966743,-82.359886
Tringali Park,Englewood,16 courts,Sarasota,26.966743,-82.359886
The Place at Corkscrew by Cameratta Companies,Estero,8 courts,Lee,26.435052,-81.810244
Estero Community Park,Estero,3 courts,Lee,26.435052,-81.810244
Bella Terra Community,Estero,6 courts,Lee,26.435052,-81.810244
Breckenridge Golf and Tennis,Estero,3 courts,Lee,26.435052,-81.810244
The island Club H.O.A.,Estero,4 courts,Lee,26.435052,-81.810244
West Bay Club,Estero,4 courts,Lee,26.435052,-81.810244
Pine Meadows Conservation Area,Eustis,6 courts,Lake,28.857686,-81.64513
Ocean Coast Hotel Pickleball Courts,Fernandina Beach,4 courts,Nassau,30.635388,-81.468829
Omni Amelia Island Resort,Fernandina Beach,7 courts,Nassau,30.635388,-81.468829
Central Park Pickleball Courts,Fernandina Beach,6 courts,Nassau,30.635388,-81.468829
"North Hampton Association, Inc.",Fernandina Beach,2 courts,Nassau,30.635388,-81.468829
The Journey Church Yulee,Fernandina Beach,4 courts,Nassau,30.635388,-81.468829
Atlantic Recreational Center,Fernandina Beach,6 courts,Nassau,30.635388,-81.468829
Shipwatch Villas,Fernandina Beach,1 court,Nassau,30.635388,-81.468829
Wadsworth Park,Flagler Beach,2 courts,Flagler,29.474978,-81.130288
Wickline Park,Flagler Beach,2 courts,Flagler,29.474978,-81.130288
Barco-Newton YMCA,Fleming Island,2 courts,Clay,30.107,-81.7167
Palmetto Park,Florahome,2 courts,Putnam,29.758105,-81.862224
RiverBend RV Resort,Fort Denaud,8 courts,Hendry,26.7455,-81.4668
Bass Park,Fort Lauderdale,1 court,Broward,26.121561,-80.128778
Florence C Hardy Park,Fort Lauderdale,2 courts,Broward,26.121561,-80.128778
Holiday Park,Fort Lauderdale,6 courts,Broward,26.121561,-80.128778
Riverside Park,Fort Lauderdale,1 court,Broward,26.121561,-80.128778
George English Park,Fort Lauderdale,6 courts,Broward,26.121561,-80.128778
Joseph C. Carter Park,Fort Lauderdale,3 courts,Broward,26.121561,-80.128778
Plantation Central Park,Fort Lauderdale,17 courts,Broward,26.121561,-80.128778
Osswald Park,Fort Lauderdale,4 courts,Broward,26.121561,-80.128778
Sunrise Middle School,Fort Lauderdale,14 courts,Broward,26.121561,-80.128778
Park on SW 112th Ter,Fort Lauderdale,2 courts,Broward,26.121561,-80.128778
Benenson Park,Fort Lauderdale,8 courts,Broward,26.121561,-80.128778
Salt Springs Civic Association Park,Fort McCoy,4 courts,Marion,29.279554,-81.887757
Fort Myers YMCA,Fort Myers,2 courts,Lee,26.620403,-81.8725
The Club at Crystal Lake,Fort Myers,2 courts,Lee,26.620403,-81.8725
The Forest Country Club,Fort Myers,6 courts,Lee,26.620403,-81.8725
Fort Myers Racquet Club,Fort Myers,6 courts,Lee,26.620403,-81.8725
"Landings Yacht, Golf and Tennis Club",Fort Myers,8 courts,Lee,26.620403,-81.8725
Cinnamon Cove,Fort Myers,2 courts,Lee,26.620403,-81.8725
Pelican Preserve,Fort Myers,12 courts,Lee,26.620403,-81.8725
Three Oaks Park,Fort Myers,6 courts,Lee,26.620403,-81.8725
Wa-Ke Hatchee Recreation Center,Fort Myers,4 courts,Lee,26.620403,-81.8725
Brookshire Bath And Tennis Club,Fort Myers,10 courts,Lee,26.620403,-81.8725
Wildblue,Fort Myers,8 courts,Lee,26.620403,-81.8725
Siesta Bay RV Resort,Fort Myers,3 courts,Lee,26.620403,-81.8725
Beach Boyz Pickleball,Fort Myers,1 court,Lee,26.620403,-81.8725
Blue Coyote Bus & Social Club,Fort Myers,5 courts,Lee,26.620403,-81.8725
Cypress Trail RV Resort,Fort Myers,8 courts,Lee,26.620403,-81.8725
Heritage Palms Pickleball Courts,Fort Myers,2 courts,Lee,26.620403,-81.8725
Colonial Country Club,Fort Myers,8 courts,Lee,26.620403,-81.8725
Schandler Hall Community Park,Fort Myers,2 courts,Lee,26.620403,-81.8725
Jamaica Bay,Fort Myers,4 courts,Lee,26.620403,-81.8725
Greens Edge at Province Park,Fort Myers,1 court,Lee,26.620403,-81.8725
Brooks Community Park,Fort Myers,12 courts,Lee,26.620403,-81.8725
Indian Creek Park RV Resort,Fort Myers Beach,5 courts,Lee,26.451952,-81.924543
Gulf Waters Rv Resort,Fort Myers Beach,4 courts,Lee,26.451952,-81.924543
Bay Oaks Recreational Campus,Fort Myers Beach,6 courts,Lee,26.451952,-81.924543
Pepper Park,Fort Pierce,1 court,Saint Lucie,27.438233,-80.443963
Lincoln Park Academy,Fort Pierce,8 courts,Saint Lucie,27.438233,-80.443963
Ft Walton Beach Rec Center,Fort Walton Beach,3 courts,Okaloosa,30.447297,-86.627487
Mooney Park,Fort Walton Beach,6 courts,Okaloosa,30.447297,-86.627487
Fort Walton Beach Tennis Center,Fort Walton Beach,4 courts,Okaloosa,30.447297,-86.627487
Jet Drive Park,Fort Walton Beach,6 courts,Okaloosa,30.447297,-86.627487
Weatherly HOA,Gainesville,2 courts,Alachua,29.645029,-82.310046
Joseph Williams Elementary,Gainesville,1 court,Alachua,29.645029,-82.310046
Kanapaha Veterans Memorial Park,Gainesville,5 courts,Alachua,29.645029,-82.310046
Flavet Field,Gainesville,4 courts,Alachua,29.645029,-82.310046
Saint Francis Catholic Academy,Gainesville,2 courts,Alachua,29.645029,-82.310046
Alachua County Sports and Events Center,Gainesville,21 courts,Alachua,29.645029,-82.310046
Martin Luther King Center,Gainesville,4 courts,Alachua,29.645029,-82.310046
The 300 Club,Gainesville,8 courts,Alachua,29.645029,-82.310046
Westside Baptist Church,Gainesville,3 courts,Alachua,29.645029,-82.310046
Haile Plantation Golf and Country Club,Gainesville,2 courts,Alachua,29.645029,-82.310046
Gainesville Y - North Central Florida YMCA,Gainesville,2 courts,Alachua,29.645029,-82.310046
Northside Park,Gainesville,8 courts,Alachua,29.645029,-82.310046
Eastside High School,Gainesville,3 courts,Alachua,29.645029,-82.310046
"Albert ""Ray"" Massey Park",Gainesville,3 courts,Alachua,29.645029,-82.310046
Jonesville Tennis Center,Gainesville,3 courts,Alachua,29.645029,-82.310046
Gardenville Recreation Center,Gibsonton,3 courts,Hillsborough,27.841059,-82.369831
Tennis At Rolling Hills,Green Cove Springs,6 courts,Clay,30.00425,-81.726182
Thomas Hogans Memorial Gym,Green Cove Springs,3 courts,Clay,30.00425,-81.726182
Ronnie Van Zant Memorial Park,Green Cove Springs,6 courts,Clay,30.00425,-81.726182
Community Life United Methodist Church,Gulf Breeze,4 courts,Santa Rosa,30.3847,-87.043875
Gulf Breeze Shoreline Park Recreation Center,Gulf Breeze,3 courts,Santa Rosa,30.3847,-87.043875
Town Shores of Gulfport,Gulfport,2 courts,Pinellas,27.7484,-82.7034
Chase Park,Gulfport,2 courts,Pinellas,27.7484,-82.7034
Gulfport Recreation Center,Gulfport,1 court,Pinellas,27.7484,-82.7034
Gulfport Public,Gulfport,2 courts,Pinellas,27.7484,-82.7034
Lake Eva Community Center,Haines City,6 courts,Polk,28.095073,-81.614712
Golden Isles Tennis Center,Hallandale Beach,4 courts,Broward,25.9812,-80.1484
Hallandale Beach YMCA Family Center,Hallandale Beach,2 courts,Broward,25.9812,-80.1484
OB Johnson Park,Hallandale Beach,2 courts,Broward,25.9812,-80.1484
Pickleball in Citrus Hills,Hernando,8 courts,Citrus,28.899722,-82.374722
Terra Vista,Hernando,2 courts,Citrus,28.899722,-82.374722
Goodlet Park Tennis Center,Hialeah,6 courts,Miami-dade,25.905,-80.3049
Country Club of Miami,Hialeah,2 courts,Miami-dade,25.905,-80.3049
South County Ball Park,Hobe Sound,6 courts,Martin,27.081306,-80.150851
"William G. ""Doc"" Myers Park",Hobe Sound,6 courts,Martin,27.081306,-80.150851
J. Ben Harrill Recreation Complex,Holiday,6 courts,Pasco,28.191273,-82.727935
Stan Goldman Memorial Park,Hollywood,5 courts,Broward,26.007011,-80.121931
Suellen H. Fardelmann Cooper City Sports Complex,Hollywood,6 courts,Broward,26.007011,-80.121931
Valencia Palms,Hollywood,2 courts,Broward,26.007011,-80.121931
Holmes Beach Pickleball Courts,Holmes Beach,8 courts,Manatee,27.466667,-82.704167
Christ Fellowship Church,Homestead,1 court,Miami-dade,25.476639,-80.483853
Keys Gate Tennis Club,Homestead,3 courts,Miami-dade,25.476639,-80.483853
Sugarmill Woods Inc - Oak Village Bath & Tennis Club,Homosassa,4 courts,Citrus,28.7488,-82.5318
Beacon Woods Drive & Clock Tower Parkway,Hudson,1 court,Pasco,28.364763,-82.675669
Veteran's Memorial Park,Hudson,4 courts,Pasco,28.364763,-82.675669
John's Island,Indian River Shores,6 courts,Indian River,27.7167,-80.3842
Kolb Park,Indian Rocks Beach,2 courts,Pinellas,27.884,-82.8455
Elisabeth Lahti Library Park,Indiantown,1 court,Martin,27.061461,-80.480277
Whispering Pines Park,Inverness,4 courts,Citrus,28.8337,-82.2896
Gib Reese Park,Islamorada,3 courts,Monroe,24.923331,-80.629953
Founders Park,Islamorada,4 courts,Monroe,24.923331,-80.629953
Ortega Life Center @ Ortega United Methodist Church,Jacksonville,3 courts,Duval,30.3163,-81.4175
Ortega Life Center,Jacksonville,3 courts,Duval,30.3163,-81.4175
Southside Park Tennis,Jacksonville,4 courts,Duval,30.3163,-81.4175
LifePoint Christian Fellowship,Jacksonville,2 courts,Duval,30.3163,-81.4175
Victoria Park,Jacksonville,1 court,Duval,30.3163,-81.4175
Walter Anderson Memorial Park,Jacksonville,6 courts,Duval,30.3163,-81.4175
The Valley at Hidden Hills,Jacksonville,2 courts,Duval,30.3163,-81.4175
Williams Family YMCA,Jacksonville,3 courts,Duval,30.3163,-81.4175
Klutho Tennis Court,Jacksonville,2 courts,Duval,30.3163,-81.4175
Jacksonville,Jacksonville,2 courts,Duval,30.3163,-81.4175
Winston Family YMCA,Jacksonville,4 courts,Duval,30.3163,-81.4175
Veterans Park,Jacksonville,6 courts,Duval,30.3163,-81.4175
Mandarin United Methodist Church,Jacksonville,2 courts,Duval,30.3163,-81.4175
Bartram Springs Pickleball Courts,Jacksonville,2 courts,Duval,30.3163,-81.4175
Argyle Forest Park,Jacksonville,12 courts,Duval,30.3163,-81.4175
Fort Family Park,Jacksonville,4 courts,Duval,30.3163,-81.4175
Boone Park,Jacksonville,4 courts,Duval,30.3163,-81.4175
Boulevard and 5th street,Jacksonville,2 courts,Duval,30.3163,-81.4175
Flynn Park,Jacksonville,2 courts,Duval,30.3163,-81.4175
Boone Park Tennis Complex,Jacksonville,2 courts,Duval,30.3163,-81.4175
Brooks Family YMCA,Jacksonville,3 courts,Duval,30.3163,-81.4175
Duval Pickleball,Jacksonville,2 courts,Duval,30.3163,-81.4175
Blue Cypress Park,Jacksonville,4 courts,Duval,30.3163,-81.4175
Alberts Field,Jacksonville,4 courts,Duval,30.3163,-81.4175
Del Webb Lakewood Ranch,Jacksonville,8 courts,Duval,30.3163,-81.4175
Jacksonville Beach,Jacksonville Beach,0 courts,Duval,30.294444,-81.393333
Isle of Palms Park JAX,Jacksonville Beach,4 courts,Duval,30.294444,-81.393333
South Beach Park and Sunshine Playground,Jacksonville Beach,2 courts,Duval,30.294444,-81.393333
Langford Park,Jensen Beach,4 courts,Martin,27.235568,-80.227656
Abacoa Community Park,Jupiter,5 courts,Palm Beach,26.933938,-80.120091
Jonathan’s Landing Golf Club,Jupiter,3 courts,Palm Beach,26.933938,-80.120091
Jupiter Inlet Lighthouse & Museum Park,Jupiter,4 courts,Palm Beach,26.933938,-80.120091
The Club at Admirals Cove,Jupiter,8 courts,Palm Beach,26.933938,-80.120091
Tequesta Village,Jupiter,1 court,Palm Beach,26.933938,-80.120091
Carlin Park,Jupiter,6 courts,Palm Beach,26.933938,-80.120091
Jupiter Cove Condo,Jupiter,3 courts,Palm Beach,26.933938,-80.120091
Jupiter Community Center,Jupiter,6 courts,Palm Beach,26.933938,-80.120091
Jupiter Community Park,Jupiter,3 courts,Palm Beach,26.933938,-80.120091
Tequesta Park,Jupiter,6 courts,Palm Beach,26.933938,-80.120091
Good Shepherd Episcopal School,Jupiter,2 courts,Palm Beach,26.933938,-80.120091
West Jupiter Recreation Center,Jupiter,3 courts,Palm Beach,26.933938,-80.120091
Jupiter Country Club,Jupiter,1 court,Palm Beach,26.933938,-80.120091
County Line Park,Jupiter,2 courts,Palm Beach,26.933938,-80.120091
Key Colony Beach Pickleball Courts,Key Colony Beach,4 courts,Monroe,24.7205,-81.0188
Health & Tennis Club At Ocean Reef,Key Largo,17 courts,Monroe,25.140214,-80.406084
Key Largo Community Park,Key Largo,6 courts,Monroe,25.140214,-80.406084
Key Largo Pickleball,Key Largo,3 courts,Monroe,25.140214,-80.406084
Buttonwood Bay Condominium,Key Largo,5 courts,Monroe,25.140214,-80.406084
Ocean Reef Club,Key Largo,15 courts,Monroe,25.140214,-80.406084
Sobek Pickleball,Key West,6 courts,Monroe,24.565313,-81.762179
Higgs Beach Park Tennis Courts,Key West,6 courts,Monroe,24.565313,-81.762179
Twin lakes Park,Keystone Heights,6 courts,Clay,29.797579,-81.989885
Little Rain Lake Park,Keystone Heights,2 courts,Clay,29.797579,-81.989885
Keystone Heights Sunrise Park,Keystone Heights,1 court,Clay,29.797579,-81.989885
Wyndham Club Star Island,Kissimmee,6 courts,Osceola,28.305056,-81.424208
Cypress Cove Nudist Resort,Kissimmee,6 courts,Osceola,28.305056,-81.424208
Stonegate Golf Club,Kissimmee,5 courts,Osceola,28.305056,-81.424208
Legacy Dunes Resort,Kissimmee,1 court,Osceola,28.305056,-81.424208
RPMS Sports Club,Kissimmee,4 courts,Osceola,28.305056,-81.424208
Reunion Resort Tennis & Pickleball Center,Kissimmee,2 courts,Osceola,28.305056,-81.424208
Kissimmee Oak Street Park and Community Center,Kissimmee,16 courts,Osceola,28.305056,-81.424208
Solivita Club,Kissimmee,13 courts,Osceola,28.305056,-81.424208
Civic Park,LaBelle,1 court,Hendry,26.732093,-81.434027
La Hacienda Center,Lady Lake,6 courts,Lake,28.9172,-81.923
Chula Vista Recreation Center,Lady Lake,6 courts,Lake,28.9172,-81.923
Sterling Heights Pool & Recreation Center,Lady Lake,6 courts,Lake,28.9172,-81.923
Churchill Street Pool & Recreation Center,Lady Lake,4 courts,Lake,28.9172,-81.923
Lake Miona Pool & Recreation,Lady Lake,6 courts,Lake,28.9172,-81.923
SeaBreeze Pool & Recreation Center,Lady Lake,6 courts,Lake,28.9172,-81.923
Laurel Manor Pool & Recreation Center,Lady Lake,4 courts,Lake,28.9172,-81.923
Recreation Plantation Rv Resort,Lady Lake,14 courts,Lake,28.9172,-81.923
Pimlico Recreation Center,Lady Lake,8 courts,Lake,28.9172,-81.923
Canal Street Pool & Recreation Center,Lady Lake,4 courts,Lake,28.9172,-81.923
Odell Recreation Center,Lady Lake,6 courts,Lake,28.9172,-81.923
Holiday Inn Express Hotel & Suites,Lady Lake,6 courts,Lake,28.9172,-81.923
The Grand Oaks Resort,Lady Lake,4 courts,Lake,28.9172,-81.923
Truman Pool & Recreation Center,Lady Lake,6 courts,Lake,28.9172,-81.923
Disney's Old Key West Resort,Lake Buena Vista,1 court,Orange,28.3695,-81.5261
Richardson Community Center,Lake City,5 courts,Columbia,30.0949,-82.7117
East Park Lake Nona,Lake Hart,4 courts,Orange,28.388,-81.2283
PickleBall Athletics Club,Lake Park,8 courts,Palm Beach,26.8003,-80.0664
Sunshine R/V Resort,Lake Placid,4 courts,Highlands,27.294474,-81.364918
Genesis Center-First Presbyterian Church,Lake Placid,2 courts,Highlands,27.294474,-81.364918
Sun 'n Lakes Subdivision,Lake Placid,2 courts,Highlands,27.294474,-81.364918
Waters Edge,Lake Placid,0 courts,Highlands,27.294474,-81.364918
River Ranch RV Resort,Lake Wales,4 courts,Polk,27.903734,-81.548805
South Lake Wales Church of God,Lake Wales,3 courts,Polk,27.903734,-81.548805
Kirkland Gymnasium,Lake Wales,3 courts,Polk,27.903734,-81.548805
Lake Wales Tennis Courts,Lake Wales,6 courts,Polk,27.903734,-81.548805
Lucerne Pointe,Lake Worth,4 courts,Palm Beach,26.6155,-80.1469
Valencia Shores Social Clubhouse,Lake Worth,6 courts,Palm Beach,26.6155,-80.1469
West Boynton Park and Recreation Center,Lake Worth,3 courts,Palm Beach,26.6155,-80.1469
Lakeshore Colony,Lake Worth,3 courts,Palm Beach,26.6155,-80.1469
"Sunset Ridge Park, Lake Worth",Lake Worth,6 courts,Palm Beach,26.6155,-80.1469
The Isles At Wellington,Lake Worth,3 courts,Palm Beach,26.6155,-80.1469
Woodlake Park,Lakeland,6 courts,Polk,28.038134,-81.939153
Lake Parker Park,Lakeland,8 courts,Polk,28.038134,-81.939153
Simpson Park Community Center,Lakeland,3 courts,Polk,28.038134,-81.939153
Kelly Recreation Complex,Lakeland,12 courts,Polk,28.038134,-81.939153
Indigo,Lakewood Ranch,4 courts,Manatee,27.4117,-82.4285
Lakewood Ranch Park,Lakewood Ranch,5 courts,Manatee,27.4117,-82.4285
Caliente Club & Resorts,Land O' Lakes,6 courts,Pasco,28.2189,-82.4576
Land O' Lakes Recreation Complex,Land O' Lakes,12 courts,Pasco,28.2189,-82.4576
Town of Lantana Recreation Center,Lantana,2 courts,Palm Beach,26.5867,-80.052
Pinebrook Park,Largo,1 court,Pinellas,27.9163,-82.7996
Highland Recreation Complex,Largo,7 courts,Pinellas,27.9163,-82.7996
Greater Ridgecrest Branch YMCA,Largo,3 courts,Pinellas,27.9163,-82.7996
Southwest Recreation Complex,Largo,3 courts,Pinellas,27.9163,-82.7996
Outdoor Resorts At Long Key,Layton,1 court,Monroe,24.824,-80.8137
P.E.A.R. Park 'Gateway',Leesburg,12 courts,Lake,28.807965,-81.885772
Pennbrooke Fairways,Leesburg,6 courts,Lake,28.807965,-81.885772
The Plantation At Leesburg,Leesburg,12 courts,Lake,28.807965,-81.885772
Leesburg Recreation Complex,Leesburg,3 courts,Lake,28.807965,-81.885772
Hawthorne At Leesburg,Leesburg,3 courts,Lake,28.807965,-81.885772
Highland Lakes Tennis Activity,Leesburg,7 courts,Lake,28.807965,-81.885772
Holiday Travel Resort,Leesburg,4 courts,Lake,28.807965,-81.885772
Encore Oasis Club,Lithia,2 courts,Hillsborough,27.829349,-82.135679
First Federal Sportsplex,Live Oak,6 courts,Suwannee,30.286622,-83.024994
The Resort at Longboat Key Club,Longboat Key,4 courts,Manatee,27.38669,-82.638403
Bayfront Park Recreation Center,Longboat Key,5 courts,Manatee,27.38669,-82.638403
Candyland Park,Longwood,6 courts,Seminole,28.711994,-81.355238
Sweetwater Oaks Club,Longwood,8 courts,Seminole,28.711994,-81.355238
Paradise Lakes Resort,Lutz,4 courts,Hillsborough,28.143,-82.4752
The Club at Cheval,Lutz,4 courts,Hillsborough,28.143,-82.4752
Lake Como Family Nudist Resort,Lutz,5 courts,Hillsborough,28.143,-82.4752
Nye Park,Lutz,2 courts,Hillsborough,28.143,-82.4752
Lynn Haven Sports Complex,Lynn Haven,8 courts,Bay,30.236165,-85.646658
Madison Recreation Complex,Madison,2 courts,Madison,30.480209,-83.406678
Madison RV & Golf Resort,Madison,4 courts,Madison,30.480209,-83.406678
Church of God Family Life Center,Madison,2 courts,Madison,30.480209,-83.406678
City of Maitland - Minnehaha Park,Maitland,4 courts,Orange,28.631284,-81.354598
Hawks Cay Resort,Marathon,8 courts,Monroe,24.727919,-81.038581
Marco Island Racquet Center,Marco Island,7 courts,Collier,25.9392,-81.7174
The Greater Marco Family YMCA,Marco Island,9 courts,Collier,25.9392,-81.7174
Marianna K-8 School,Marianna,3 courts,Jackson,30.758587,-85.229367
Marianna Pickleball - Chipola College Courts,Marianna,6 courts,Jackson,30.758587,-85.229367
Holiday Springs POA,Melbourne,1 court,Brevard,28.069132,-80.620015
Viera High School,Melbourne,8 courts,Brevard,28.069132,-80.620015
Palm Bay High School,Melbourne,2 courts,Brevard,28.069132,-80.620015
Health First,Melbourne,1 court,Brevard,28.069132,-80.620015
Jimmy Moore Sarno Tennis Complex,Melbourne,12 courts,Brevard,28.069132,-80.620015
Viera Regional Community Center,Melbourne,4 courts,Brevard,28.069132,-80.620015
Max Rodes Community Center,Melbourne,4 courts,Brevard,28.069132,-80.620015
Palmetto Park,Melbourne,2 courts,Brevard,28.069132,-80.620015
Addison Village Club,Melbourne,2 courts,Brevard,28.069132,-80.620015
Sandhill Park,Melbourne,4 courts,Brevard,28.069132,-80.620015
Joseph N. Davis Community Center,Melbourne,3 courts,Brevard,28.069132,-80.620015
Lamplighter Village,Melbourne,8 courts,Brevard,28.069132,-80.620015
Bryant Adams Park,Melbourne,2 courts,Brevard,28.069132,-80.620015
Westwind Park,Melbourne,2 courts,Brevard,28.069132,-80.620015
Wickham Park Community Center,Melbourne,4 courts,Brevard,28.069132,-80.620015
Heritage Isle Club,Melbourne,4 courts,Brevard,28.069132,-80.620015
Eau Gallie Civic Center,Melbourne,2 courts,Brevard,28.069132,-80.620015
Veterans Memorial Complex,Melbourne,6 courts,Brevard,28.069132,-80.620015
Flutie Sports Complex,Melbourne Beach,2 courts,Brevard,28.021923,-80.538936
South Beach Community Center,Melbourne Beach,2 courts,Brevard,28.021923,-80.538936
Mitchell Ellington Park,Merritt Island,2 courts,Brevard,28.328607,-80.67818
Kiwanis Island Park,Merritt Island,8 courts,Brevard,28.328607,-80.67818
Kiwanis Island,Merritt Island,4 courts,Brevard,28.328607,-80.67818
Woody Simpson Community Center,Merritt Island,4 courts,Brevard,28.328607,-80.67818
Kelly Park West,Merritt Island,2 courts,Brevard,28.328607,-80.67818
Sugar Sands Pickleball Club,Mexico Beach,5 courts,Bay,29.947778,-85.418056
DETA Pickleball Club,Miami,16 courts,Miami-dade,25.779,-80.1982
Aventura Community Center,Miami,4 courts,Miami-dade,25.779,-80.1982
Jose Marti Park Indoor Pickleball,Miami,4 courts,Miami-dade,25.779,-80.1982
Riviera Tennis Center,Miami,8 courts,Miami-dade,25.779,-80.1982
Water Oaks Park,Miami,8 courts,Miami-dade,25.779,-80.1982
Tropical Park,Miami,4 courts,Miami-dade,25.779,-80.1982
Salvation Army Pickleball,Miami,3 courts,Miami-dade,25.779,-80.1982
Douglas Park - Miami,Miami,0 courts,Miami-dade,25.779,-80.1982
DETA Pickleball Club at Miccosukee Golf & Country Club,Miami,16 courts,Miami-dade,25.779,-80.1982
Coconut Grove Tennis Court,Miami,2 courts,Miami-dade,25.779,-80.1982
Keystone Park,Miami,2 courts,Miami-dade,25.779,-80.1982
Thousand Pines,Miami,2 courts,Miami-dade,25.779,-80.1982
Michael-Ann Russell J.C.C.,Miami,4 courts,Miami-dade,25.779,-80.1982
Bryan Park,Miami,4 courts,Miami-dade,25.779,-80.1982
Miller Drive Park,Miami,4 courts,Miami-dade,25.779,-80.1982
The Gardens of Kendall South,Miami,3 courts,Miami-dade,25.779,-80.1982
305 Pickleball Series,Miami,8 courts,Miami-dade,25.779,-80.1982
Fisher Island Racquet Club,Miami Beach,6 courts,Miami-dade,25.7611,-80.1403
Miami Beach Pickleball Courts,Miami Beach,6 courts,Miami-dade,25.7611,-80.1403
Miami Beach Tennis Center,Miami Beach,4 courts,Miami-dade,25.7611,-80.1403
North Shore Park & Youth Center,Miami Beach,3 courts,Miami-dade,25.7611,-80.1403
Polo Park,Miami Beach,2 courts,Miami-dade,25.7611,-80.1403
Scott Rakow Youth Center,Miami Beach,3 courts,Miami-dade,25.7611,-80.1403
Miami Lakes Optimist Park,Miami Lakes,4 courts,Miami-Dade,25.9087,-80.3087
Miami Shores Tennis Club & Pickleball,Miami Shores,6 courts,Miami-Dade,25.8632,-80.1928
Miami Springs Pickleball Courts,Miami Springs,4 courts,Miami-Dade,25.8223,-80.2895
Foxmeadow Recreational Park,Middleburg,2 courts,Clay,30.068611,-81.860556
Guy Thompson Community Center,Milton,6 courts,Santa Rosa,30.660413,-87.047278
Cuyler Recreation Center,Mims,3 courts,Brevard,28.697383,-80.866278
Mims United Methodist Church Pickleball Courts,Mims,3 courts,Brevard,28.697383,-80.866278
Seasons in the Sun Motorcoach Resort,Mims,4 courts,Brevard,28.697383,-80.866278
Pickleball at Seascape,Miramar Beach,6 courts,Walton,30.3823,-86.3509
Hilton Sandestin Beach Golf Resort & Spa,Miramar Beach,6 courts,Walton,30.3823,-86.3509
Hidden Dunes Beach & Tennis Resort,Miramar Beach,5 courts,Walton,30.3823,-86.3509
Jefferson County Middle/Senior High School,Monticello,3 courts,Jefferson,30.519681,-83.892454
Jefferson Recreation Department Park,Monticello,4 courts,Jefferson,30.519681,-83.892454
The Glades RV Resort,Moore Haven,6 courts,Glades,26.832749,-81.218776
Oxford Oaks,Moreland Park,2 courts,Sumter,28.8894,-82.0418
The Country Club of Mount Dora,Mount Dora,6 courts,Lake,28.802222,-81.644722
Donnelly Park,Mount Dora,4 courts,Lake,28.802222,-81.644722
Esplanade Golf & Country Club of Naples,Naples,4 courts,Collier,26.1377,-81.7966
Naples Motorcoach Resort,Naples,4 courts,Collier,26.1377,-81.7966
Naples Park Central Hotel,Naples,1 court,Collier,26.1377,-81.7966
Naples Rv Resort,Naples,2 courts,Collier,26.1377,-81.7966
East Naples Community Park,Naples,66 courts,Collier,26.1377,-81.7966
YMCA of Collier County - North Campus,Naples,4 courts,Collier,26.1377,-81.7966
Veterans Community Park,Naples,14 courts,Collier,26.1377,-81.7966
TwinEagles Club,Naples,2 courts,Collier,26.1377,-81.7966
The Ritz-Carlton,Naples,2 courts,Collier,26.1377,-81.7966
Fleischmann Park,Naples,6 courts,Collier,26.1377,-81.7966
The Club At Olde Cypress,Naples,2 courts,Collier,26.1377,-81.7966
Lake San Marino Rv Resort,Naples,2 courts,Collier,26.1377,-81.7966
Park Shore Resort,Naples,6 courts,Collier,26.1377,-81.7966
Barron Collier High School - For students only,Naples,3 courts,Collier,26.1377,-81.7966
Lakewood Country Club of Naples,Naples,4 courts,Collier,26.1377,-81.7966
Silver Lakes Rv And Golf Resort,Naples,6 courts,Collier,26.1377,-81.7966
Club Naples Rv Resort,Naples,2 courts,Collier,26.1377,-81.7966
Pelican Lake Motorcoach Resort,Naples,4 courts,Collier,26.1377,-81.7966
Veteran’s Park,Naples,6 courts,Collier,26.1377,-81.7966
Corkscrew Island,Naples,6 courts,Collier,26.1377,-81.7966
CRECA,Naples,4 courts,Collier,26.1377,-81.7966
Autumn Woods Community,Naples,2 courts,Collier,26.1377,-81.7966
Jarboe Park,Neptune Beach,8 courts,Duval,30.31548,-81.405123
Fletcher High School,Neptune Beach,4 courts,Duval,30.31548,-81.405123
New Port Richey Recreation & Aquatic Center,New Port Richey,6 courts,Pasco,28.232574,-82.732721
Pettis Park,New Smyrna Beach,3 courts,Volusia,29.024672,-80.958436
Babe James Community Center,New Smyrna Beach,2 courts,Volusia,29.024672,-80.958436
Venezia Pickleball Club,New Smyrna Beach,4 courts,Volusia,29.024672,-80.958436
Sugar Mill Country Club,New Smyrna Beach,4 courts,Volusia,29.024672,-80.958436
Detwiler Park,New Smyrna Beach,5 courts,Volusia,29.024672,-80.958436
Live Oak Cultural Center,New Smyrna Beach,3 courts,Volusia,29.024672,-80.958436
Niceville Senior,Niceville,5 courts,Okaloosa,30.495771,-86.41446
Bluewater Bay,Niceville,6 courts,Okaloosa,30.495771,-86.41446
Sun N Fun RV Resort,Nokomis,16 courts,Sarasota,27.118889,-82.444444
Aria,Nokomis,4 courts,Sarasota,27.118889,-82.444444
Nokomis Community Park,Nokomis,4 courts,Sarasota,27.118889,-82.444444
Laurel Park,Nokomis,6 courts,Sarasota,27.118889,-82.444444
Fountain View RV,North Fort Myers,2 courts,Lee,26.678138,-81.909632
Bay Pointe Blvd,North Fort Myers,4 courts,Lee,26.678138,-81.909632
Pine Lakes Estates,North Fort Myers,2 courts,Lee,26.678138,-81.909632
North Fort Myers Park and Recreation Center,North Fort Myers,3 courts,Lee,26.678138,-81.909632
Heron's Glen,North Fort Myers,4 courts,Lee,26.678138,-81.909632
IslandWalk at the West Villages - South Courts,North Port,8 courts,Sarasota,27.0781,-82.1735
Highland Ridge Park,North Port,6 courts,Sarasota,27.0781,-82.1735
Mckibben Park,North Port,1 court,Sarasota,27.0781,-82.1735
George Mullen Activity Center,North Port,3 courts,Sarasota,27.0781,-82.1735
Talon Bay,North Port,2 courts,Sarasota,27.0781,-82.1735
Harold Radcliffe Park,North Redington Beach,2 courts,Pinellas,27.8161,-82.8207
Sandpiper Bay Resort,North River Shores,6 courts,Martin,27.2175,-80.2698
Easterlin Park,Oakland Park,1 court,Broward,26.1723,-80.132
Wimberly Fields Park,Oakland Park,5 courts,Broward,26.1723,-80.132
Set Point Garden Apartments,Oakland Park,3 courts,Broward,26.1723,-80.132
Marion Oaks Community Center,Ocala,2 courts,Marion,29.1981,-82.0974
On Top of the World - Recreation,Ocala,12 courts,Marion,29.1981,-82.0974
Ocala Preserve,Ocala,6 courts,Marion,29.1981,-82.0974
Ocala Palms,Ocala,3 courts,Marion,29.1981,-82.0974
Coehadjoe Park,Ocala,8 courts,Marion,29.1981,-82.0974
Oak Run,Ocala,4 courts,Marion,29.1981,-82.0974
Tuscawilla Park,Ocala,6 courts,Marion,29.1981,-82.0974
Stone Creek Courts,Ocala,8 courts,Marion,29.1981,-82.0974
Villas of Spanish Oaks,Ocala,2 courts,Marion,29.1981,-82.0974
Frank DeLuca YMCA,Ocala,7 courts,Marion,29.1981,-82.0974
Club Fore Ranch,Ocala,2 courts,Marion,29.1981,-82.0974
On Top Of The World - Weybourne,Ocala,6 courts,Marion,29.1981,-82.0974
Keystone Park & Recreation Center,Odessa,4 courts,Hillsborough,28.142072,-82.590506
Silver Palms RV Village,Okeechobee,10 courts,Okeechobee,27.311532,-80.847853
KOA Kampgrounds of America,Okeechobee,4 courts,Okeechobee,27.311532,-80.847853
Bicentennial Park,Oldsmar,3 courts,Pinellas,28.046035,-82.684778
East Lake Woodlands Country Club,Oldsmar,12 courts,Pinellas,28.046035,-82.684778
Tampa Bay Pickleball,Oldsmar,6 courts,Pinellas,28.046035,-82.684778
Cypress Forest Recreation Center,Oldsmar,2 courts,Pinellas,28.046035,-82.684778
Dye Clay YMCA,Orange Park,3 courts,Clay,30.1044,-81.7145
Orange Park Sports & Recreation Park,Orange Park,2 courts,Clay,30.1044,-81.7145
Oakleaf Village Fitness Center,Orange Park,2 courts,Clay,30.1044,-81.7145
Dover Shores Community Center,Orlando,6 courts,Orange,28.539882,-81.372668
Avalon Park,Orlando,2 courts,Orange,28.539882,-81.372668
Laureate Park Pickleball,Orlando,4 courts,Orange,28.539882,-81.372668
Downey Park,Orlando,8 courts,Orange,28.539882,-81.372668
ClearOne Sports Centre,Orlando,13 courts,Orange,28.539882,-81.372668
Disney's Animal Kingdom Villas - Kidani Village,Orlando,1 court,Orange,28.539882,-81.372668
Dr Phillips YMCA,Orlando,6 courts,Orange,28.539882,-81.372668
Ace Cafe Orlando,Orlando,3 courts,Orange,28.539882,-81.372668
USTA National Campus - Lake Nona,Orlando,99 courts,Orange,28.539882,-81.372668
OCPS ACE School,Orlando,2 courts,Orange,28.539882,-81.372668
Lake Nona Performance Club,Orlando,3 courts,Orange,28.539882,-81.372668
Pickle X,Orlando,2 courts,Orange,28.539882,-81.372668
Orlando Racket Sports Center,Orlando,9 courts,Orange,28.539882,-81.372668
East Park Pickleball Courts,Orlando,4 courts,Orange,28.539882,-81.372668
South Econ Magic Gym,Orlando,6 courts,Orange,28.539882,-81.372668
Levitt & Sons Avalon Park Rec,Orlando,4 courts,Orange,28.539882,-81.372668
Bay Lake Tower at Disney's Contemporary Resort,Orlando,1 court,Orange,28.539882,-81.372668
Orlando Tennis Centre,Orlando,4 courts,Orange,28.539882,-81.372668
Scottsmoor at Halifax Plantation,Ormond Beach,2 courts,Volusia,29.2855,-81.0561
Nova Community Center,Ormond Beach,6 courts,Volusia,29.2855,-81.0561
Plantation Bay Golf & Country Club,Ormond Beach,4 courts,Volusia,29.2855,-81.0561
Hidden Bay,Osprey,2 courts,Sarasota,27.18384,-82.485339
Remington Park,Oviedo,4 courts,Seminole,28.669722,-81.208333
Oviedo Gymnasium and Aquatic Facility,Oviedo,2 courts,Seminole,28.669722,-81.208333
Oviedo Pickleball Training Center,Oviedo,1 court,Seminole,28.669722,-81.208333
Round Lake Park,Oviedo,10 courts,Seminole,28.669722,-81.208333
Simple Life - Lakeshore,Oxford,2 courts,Sumter,28.927222,-82.0375
Oxford Park,Oxford,6 courts,Sumter,28.927222,-82.0375
Oxford Oaks Gated Community,Oxford,2 courts,Sumter,28.927222,-82.0375
John Theobold Sports Complex,Palatka,6 courts,Putnam,29.657748,-81.659452
Grace Fellowship Church,Palatka,3 courts,Putnam,29.657748,-81.659452
Palatka High School,Palatka,16 courts,Putnam,29.657748,-81.659452
Veterans Memorial Park,Palm Bay,6 courts,Brevard,28.014605,-80.599087
Bayside Lakes Community,Palm Bay,2 courts,Brevard,28.014605,-80.599087
Bayside High School,Palm Bay,4 courts,Brevard,28.014605,-80.599087
Fred Lee Park,Palm Bay,2 courts,Brevard,28.014605,-80.599087
Ted Whitlock Community Center,Palm Bay,4 courts,Brevard,28.014605,-80.599087
Town Of Palm Beach Seaview Tennis Center,Palm Beach,8 courts,Palm Beach,26.72065,-80.038825
Phipps Ocean Park Tennis Center,Palm Beach,6 courts,Palm Beach,26.72065,-80.038825
Burns Road Community Center,Palm Beach Gardens,2 courts,Palm Beach,26.844373,-80.087304
Village Of North Palm Beach,Palm Beach Gardens,3 courts,Palm Beach,26.844373,-80.087304
Palm Beach Gardens Tennis & Pickleball Center,Palm Beach Gardens,12 courts,Palm Beach,26.844373,-80.087304
Life Time Palm Beach Gardens,Palm Beach Gardens,3 courts,Palm Beach,26.844373,-80.087304
Garden Lakes Home Owners Association,Palm Beach Gardens,2 courts,Palm Beach,26.844373,-80.087304
Justin Wilson Memorial Park,Palm City,4 courts,Martin,27.165646,-80.291646
MSOA Pickleball,Palm Coast,6 courts,Flagler,29.5847,-81.208
Hammock Dunes Golf & Country Club,Palm Coast,4 courts,Flagler,29.5847,-81.208
Grand Haven,Palm Coast,1 court,Flagler,29.5847,-81.208
Hammock Community Center - Malacompra Courts,Palm Coast,6 courts,Flagler,29.5847,-81.208
Dr Belle Terre Park,Palm Coast,5 courts,Flagler,29.5847,-81.208
James Holland Park,Palm Coast,8 courts,Flagler,29.5847,-81.208
A1A Tennis/Pickleball Courts,Palm Coast,4 courts,Flagler,29.5847,-81.208
Palm Harbor Parks & Recreation - The Centre,Palm Harbor,2 courts,Pinellas,28.077778,-82.763889
Palm Harbor YMCA,Palm Harbor,3 courts,Pinellas,28.077778,-82.763889
Highland Lakes HOA,Palm Harbor,4 courts,Pinellas,28.077778,-82.763889
Village of Palm Springs Athletic Complex,Palm Springs,4 courts,Miami-Dade,26.6359,-80.0962
John Prince Park,Palm Springs,6 courts,Miami-Dade,26.6359,-80.0962
David M Barksdale Center,Palma Ceia,0 courts,Hillsborough,27.921,-82.4956
Blackburn Tennis Courts,Palmetto,2 courts,Manatee,27.521111,-82.5725
Palmetto Tennis Courts,Palmetto,4 courts,Manatee,27.521111,-82.5725
Terra Ceia Country Club,Palmetto,6 courts,Manatee,27.521111,-82.5725
The Tides,Palmetto,3 courts,Manatee,27.521111,-82.5725
Coral Reef Tennis Center,Palmetto Bay,2 courts,Miami-Dade,25.6218,-80.3248
Palmetto Bay Park,Palmetto Bay,2 courts,Miami-Dade,25.6218,-80.3248
Oakland Terrace Park,Panama City,3 courts,Bay,30.160624,-85.649403
Oakland Terrace Recreation Center,Panama City,6 courts,Bay,30.160624,-85.649403
Panama City Beach RV Resort,Panama City,2 courts,Bay,30.160624,-85.649403
Frank Brown Park,Panama City Beach,3 courts,Bay,30.194623,-85.791984
Edgewater Beach & Golf Resort,Panama City Beach,11 courts,Bay,30.194623,-85.791984
Lyndell Senior Center,Panama City Beach,4 courts,Bay,30.194623,-85.791984
Latitude Margaritaville Watersound,Panama City Beach,10 courts,Bay,30.194623,-85.791984
Pcb condo,Panama City Beach,4 courts,Bay,30.194623,-85.791984
Celadon Beach Resort,Panama City Beach,1 court,Bay,30.194623,-85.791984
Mexico Beach,Panama City Beach,6 courts,Bay,30.194623,-85.791984
Terramar Park,Parkland,6 courts,Broward,26.3108,-80.2532
Four Seasons at Parkland,Parkland,3 courts,Broward,26.3108,-80.2532
Parkland Recreation & Enrichment Center,Parkland,4 courts,Broward,26.3108,-80.2532
Del Webb BayView,Parrish,8 courts,Manatee,27.557162,-82.396009
C.B. Smith Park,Pembroke Pines,6 courts,Broward,26.022927,-80.297441
Pembroke Lakes Tennis Center,Pembroke Pines,5 courts,Broward,26.022927,-80.297441
West Pembroke Pines Pickleball Courts,Pembroke Pines,2 courts,Broward,26.022927,-80.297441
Century Village Pembroke Pines,Pembroke Pines,8 courts,Broward,26.022927,-80.297441
Silver Lakes Park - North,Pembroke Pines,4 courts,Broward,26.022927,-80.297441
"Vickery Community Center, Pensacola, Flordia",Pensacola,3 courts,Escambia,30.422282,-87.224763
Hollis T. Williams Park,Pensacola,3 courts,Escambia,30.422282,-87.224763
SeaSpray Perdido Key Condominiums,Pensacola,2 courts,Escambia,30.422282,-87.224763
Bear Levin Studer Family YMCA,Pensacola,2 courts,Escambia,30.422282,-87.224763
Malcolm Yonge Center,Pensacola,3 courts,Escambia,30.422282,-87.224763
Pensacola Athletic Center,Pensacola,4 courts,Escambia,30.422282,-87.224763
Taylor County Sports Complex,Perry,2 courts,Taylor,30.097489,-83.585021
Murabella Amenity Center,Picolata,2 courts,St. Augustine,29.915,-81.5929
Windward Ranch,Picolata,4 courts,St. Augustine,29.915,-81.5929
World Golf Village,Picolata,2 courts,St. Augustine,29.915,-81.5929
Bluegreen Vacations Grande Villas At World Golf Village,Picolata,1 court,St. Augustine,29.915,-81.5929
Cascades at World Golf Village,Picolata,6 courts,St. Augustine,29.915,-81.5929
Heritage Landing at World Golf Village,Picolata,2 courts,St. Augustine,29.915,-81.5929
Trailmark at World Golf Village,Picolata,2 courts,St. Augustine,29.915,-81.5929
SilverLeaf Village,Picolata,6 courts,St. Augustine,29.915,-81.5929
King N Bear,Picolata,4 courts,St. Augustine,29.915,-81.5929
Coral Pine Park,Pinecrest,4 courts,Miami-Dade,25.6623,-80.307
Suniland Park,Pinecrest,4 courts,Miami-Dade,25.6623,-80.307
Park Royale,Pinellas Park,4 courts,Pinellas,27.8387,-82.7151
Forbes Recreation Center,Pinellas Park,2 courts,Pinellas,27.8387,-82.7151
Plant City Family YMCA,Plant City,2 courts,Hillsborough,28.0168,-82.1289
Sadye Gibbs Martin Community Center,Plant City,3 courts,Hillsborough,28.0168,-82.1289
Morgan Park,Pomona Park,1 court,Putnam,29.502106,-81.630739
Cypress Park,Pompano Beach,8 courts,Broward,26.231529,-80.12346
Pompano Beach Community Park,Pompano Beach,12 courts,Broward,26.231529,-80.12346
Pompano Beach Club,Pompano Beach,3 courts,Broward,26.231529,-80.12346
City Of Coral Springs,Pompano Beach,2 courts,Broward,26.231529,-80.12346
Wynmoor,Pompano Beach,8 courts,Broward,26.231529,-80.12346
Firefighters Park,Pompano Beach,4 courts,Broward,26.231529,-80.12346
Palm Aire - George Brummer Park,Pompano Beach,4 courts,Broward,26.231529,-80.12346
Ponce Inlet Community Center & Park,Ponce Inlet,4 courts,Volusia,29.0964,-80.937
Del Webb Ponte Vedra,Ponte Vedra,0 courts,Saint Johns,30.098,-81.4395
Valley Ridge Academy,Ponte Vedra,3 courts,Saint Johns,30.098,-81.4395
Nocatee,Ponte Vedra Beach,12 courts,Saint Johns,30.239444,-81.385833
Walden Chase,Ponte Vedra Beach,2 courts,Saint Johns,30.239444,-81.385833
Nocatee Splash Waterpark,Ponte Vedra Beach,12 courts,Saint Johns,30.239444,-81.385833
Sawmill Lakes,Ponte Vedra Beach,2 courts,Saint Johns,30.239444,-81.385833
Ponte Vedra YMCA,Ponte Vedra Beach,3 courts,Saint Johns,30.239444,-81.385833
The Yards,Ponte Vedra Beach,12 courts,Saint Johns,30.239444,-81.385833
Port Charlotte Beach Park,Port Charlotte,4 courts,Charlotte,26.98268,-82.141173
Franz Ross Park,Port Charlotte,4 courts,Charlotte,26.98268,-82.141173
Harold Avenue Regional Park Recreation Center,Port Charlotte,9 courts,Charlotte,26.98268,-82.141173
Harbor Lakes Encore RV Resort,Port Charlotte,3 courts,Charlotte,26.98268,-82.141173
Centennial Park Recreation Center,Port Charlotte,4 courts,Charlotte,26.98268,-82.141173
McGuire Park,Port Charlotte,3 courts,Charlotte,26.98268,-82.141173
William R. Gaines Jr. Veterans Memorial Park,Port Charlotte,8 courts,Charlotte,26.98268,-82.141173
Midway Park,Port Charlotte,8 courts,Charlotte,26.98268,-82.141173
Port Orange Parks and Recreation,Port Orange,6 courts,Volusia,29.121389,-80.976667
Port Orange Pickleball Courts,Port Orange,8 courts,Volusia,29.121389,-80.976667
Spruce Creek Country Club,Port Orange,8 courts,Volusia,29.121389,-80.976667
The Salvation Army Corps & Community Center,Port Richey,3 courts,Pasco,28.301148,-82.692714
Salinas Park,Port St. Joe,4 courts,Gulf,29.83539,-85.298787
Frank Pate Park,Port St. Joe,4 courts,Gulf,29.83539,-85.298787
Gulf County Veterans Memorial Park at Beacon Hill,Port St. Joe,4 courts,Gulf,29.83539,-85.298787
The Cascades of Saint Lucie West,Port St. Lucie,2 courts,Saint Lucie,27.288895,-80.297971
Vitalia At Traditions,Port St. Lucie,8 courts,Saint Lucie,27.288895,-80.297971
PGA Village Island Club,Port St. Lucie,4 courts,Saint Lucie,27.288895,-80.297971
PGA Village Verano Pickleball Courts,Port St. Lucie,27 courts,Saint Lucie,27.288895,-80.297971
Whispering Pines Tennis Center,Port St. Lucie,8 courts,Saint Lucie,27.288895,-80.297971
The Legacy Golf and Tennis Club,Port St. Lucie,6 courts,Saint Lucie,27.288895,-80.297971
Harbour Heights Park,Punta Gorda,8 courts,Charlotte,26.915163,-82.053166
Bissett Park,Punta Gorda,4 courts,Charlotte,26.915163,-82.053166
Seminole Lakes,Punta Gorda,4 courts,Charlotte,26.915163,-82.053166
Deep Creek Park,Punta Gorda,8 courts,Charlotte,26.915163,-82.053166
PicklePlex,Punta Gorda,16 courts,Charlotte,26.915163,-82.053166
Gilchrist Park,Punta Gorda,8 courts,Charlotte,26.915163,-82.053166
River Haven,Punta Gorda,1 court,Charlotte,26.915163,-82.053166
Punta Gorda Club,Punta Gorda,4 courts,Charlotte,26.915163,-82.053166
Florida Southwestern State College - Charlotte Campus,Punta Gorda,16 courts,Charlotte,26.915163,-82.053166
Burnt Store Marina Fitness Center,Punta Gorda,8 courts,Charlotte,26.915163,-82.053166
South County Regional Park,Punta Gorda,12 courts,Charlotte,26.915163,-82.053166
Maple Leaf Golf & Country Club,Punta Gorda,2 courts,Charlotte,26.915163,-82.053166
Marina Grande,Riviera Beach,2 courts,Palm Beach,26.7753,-80.0581
Rockledge Country Club,Rockledge,6 courts,Brevard,28.313441,-80.73193
McLarty Park,Rockledge,2 courts,Brevard,28.313441,-80.73193
Rotonda Community Park,Rotonda,8 courts,Charlotte,26.8837,-82.2901
Rotonda West Park,Rotonda,2 courts,Charlotte,26.8837,-82.2901
Royal Palm Beach Recreation Center,Royal Palm Beach,6 courts,Palm Beach,26.7084,-80.2306
Madison Green Clubhouse,Royal Palm Beach,1 court,Palm Beach,26.7084,-80.2306
Ruskin Park & Recreation Center,Ruskin,2 courts,Hillsborough,27.701501,-82.435501
Cypress Mill,Ruskin,2 courts,Hillsborough,27.701501,-82.435501
Riverside Marina,Ruskin,6 courts,Hillsborough,27.701501,-82.435501
Safety Harbor Community Center,Safety Harbor,8 courts,Pinellas,28.009608,-82.696658
Cimarrone Golf Club,Sampson,3 courts,St. Johns,30.0647,-81.5018
Saint Anthony Catholic School,San Antonio,2 courts,Pasco,28.337139,-82.288237
Groveview Park,Sanford,6 courts,Seminole,28.801307,-81.285044
Lee P Moore Park Tennis & Pickleball Courts,Sanford,6 courts,Seminole,28.801307,-81.285044
The Salvation Army Community Center,Sanford,3 courts,Seminole,28.801307,-81.285044
Sundial Beach & Golf Resort,Sanibel,12 courts,Lee,26.4514,-82.086825
Sanibel Recreation Center,Sanibel,2 courts,Lee,26.4514,-82.086825
Surfrider Beach Club Resort,Sanibel,1 court,Lee,26.4514,-82.086825
Holiday Inn Hotel Sanibel Island,Sanibel,2 courts,Lee,26.4514,-82.086825
Boys And Girls Club of the Emerald Coast,Santa Rosa Beach,6 courts,Walton,30.365883,-86.245809
South Walton Sports Complex,Santa Rosa Beach,4 courts,Walton,30.365883,-86.245809
South Walton Academy/Indoor ickleball,Santa Rosa Beach,2 courts,Walton,30.365883,-86.245809
WaterColor Tennis/Pickleball,Santa Rosa Beach,2 courts,Walton,30.365883,-86.245809
Church of the Palms,Sarasota,3 courts,Sarasota,27.3348,-82.5375
Newtown Estates Park,Sarasota,7 courts,Sarasota,27.3348,-82.5375
Colonial Oaks Park,Sarasota,10 courts,Sarasota,27.3348,-82.5375
CORE SRQ - North Branch,Sarasota,0 courts,Sarasota,27.3348,-82.5375
The Pickleball Club at Lakewood Ranch,Sarasota,14 courts,Sarasota,27.3348,-82.5375
Artistry Sarasota,Sarasota,1 court,Sarasota,27.3348,-82.5375
Salvation Army Gym,Sarasota,0 courts,Sarasota,27.3348,-82.5375
Arlington Park & Aquatic Complex,Sarasota,4 courts,Sarasota,27.3348,-82.5375
Longwood Park,Sarasota,8 courts,Sarasota,27.3348,-82.5375
Lakehouse Cove at Waterside,Sarasota,2 courts,Sarasota,27.3348,-82.5375
Palm-Aire Country Club,Sarasota,8 courts,Sarasota,27.3348,-82.5375
Serendipity Health & Racquet Club,Sarasota,1 court,Sarasota,27.3348,-82.5375
Fruitville Park,Sarasota,4 courts,Sarasota,27.3348,-82.5375
Youth Athletic Complex,Sarasota,1 court,Sarasota,27.3348,-82.5375
Castel Del Mar,Sarasota,1 court,Sarasota,27.3348,-82.5375
Siesta Key Public Beach,Sarasota,4 courts,Sarasota,27.3348,-82.5375
Twin Lakes Park,Sarasota,4 courts,Sarasota,27.3348,-82.5375
Core SRQ - South Branch,Sarasota,2 courts,Sarasota,27.3348,-82.5375
Shoreview at Lakewood Ranch Waterside by Pulte Homes,Sarasota,4 courts,Sarasota,27.3348,-82.5375
Sarasota Municipal Auditorium,Sarasota,2 courts,Sarasota,27.3348,-82.5375
Sarasota Pompano Pickleball,Sarasota,12 courts,Sarasota,27.3348,-82.5375
Our Y Sadlier Park,Sarasota,2 courts,Sarasota,27.3348,-82.5375
Grand Park,Sarasota,4 courts,Sarasota,27.3348,-82.5375
Robert L. Taylor Community Complex,Sarasota,2 courts,Sarasota,27.3348,-82.5375
Parkside Place,Satellite Beach,2 courts,Brevard,28.178571,-80.598671
Satellite Beach Community Center,Satellite Beach,3 courts,Brevard,28.178571,-80.598671
Whispering Palms Mhc And Rv Resort,Sebastian,3 courts,Indian River,27.790082,-80.478432
Schumann Drive Park,Sebastian,6 courts,Indian River,27.790082,-80.478432
Sebastian Pickleball Complex,Sebastian,8 courts,Indian River,27.790082,-80.478432
Sebastian River High School,Sebastian,7 courts,Indian River,27.790082,-80.478432
Buttonwood Bay RV Resort,Sebring,5 courts,Highlands,27.492391,-81.435712
Sun n Lake,Sebring,8 courts,Highlands,27.492391,-81.435712
Charlie Brown Park,Sebring,2 courts,Highlands,27.492391,-81.435712
Spring Lake Pickleball Club,Sebring,2 courts,Highlands,27.492391,-81.435712
Tanglewood,Sebring,8 courts,Highlands,27.492391,-81.435712
Highlands County Tennis Center,Sebring,8 courts,Highlands,27.492391,-81.435712
North Brandon Family YMCA,Seffner,2 courts,Hillsborough,27.983333,-82.275833
Higginbotham Park,Seffner,8 courts,Hillsborough,27.983333,-82.275833
Seminole Lake Family Tennis Center,Seminole,4 courts,Pinellas,27.8438,-82.7947
Seminole Recreation Division,Seminole,4 courts,Pinellas,27.8438,-82.7947
Bardmoor Elementary School,Seminole,1 court,Pinellas,27.8438,-82.7947
Bardmoor Golf & Tennis Club,Seminole,12 courts,Pinellas,27.8438,-82.7947
Timber Pines - Lodge Activity Center,Spring Hill,6 courts,Hernando,28.46551,-82.598084
Delta Woods Park,Spring Hill,2 courts,Hernando,28.46551,-82.598084
Silverthorn,Spring Hill,4 courts,Hernando,28.46551,-82.598084
Ron Parker Park,St. Augustine,6 courts,Saint Johns,29.8364,-81.2745
The Ocean Gallery,St. Augustine,2 courts,Saint Johns,29.8364,-81.2745
Parkland Preserve by DR Horton,St. Augustine,4 courts,Saint Johns,29.8364,-81.2745
Villages Of Vilano,St. Augustine,1 court,Saint Johns,29.8364,-81.2745
Palencia,St. Augustine,4 courts,Saint Johns,29.8364,-81.2745
St. Augustine YMCA,St. Augustine,3 courts,Saint Johns,29.8364,-81.2745
Bannon Lakes,St. Augustine,2 courts,Saint Johns,29.8364,-81.2745
Conquistador,St. Augustine,3 courts,Saint Johns,29.8364,-81.2745
Markland Manor House,St. Augustine,2 courts,Saint Johns,29.8364,-81.2745
Treaty Park,St. Augustine South,8 courts,St. Johns,29.8922,-81.3139
Del Webb Sunbridge,St. Cloud,7 courts,Osceola,28.247992,-81.287626
Godwin Park,St. Cloud,6 courts,Osceola,28.247992,-81.287626
Ted Broda Memorial Park,St. Cloud,5 courts,Osceola,28.247992,-81.287626
St. George Island Vistor Center,St. George Island,1 court,Franklin,29.6585,-84.8802
St Pete Beach Community Center,St. Pete Beach,2 courts,Pinellas,27.7428,-82.7505
Warren Webster Community Center,St. Pete Beach,3 courts,Pinellas,27.7428,-82.7505
Coquina Key Park,St. Petersburg,6 courts,Pinellas,27.772318,-82.638609
Booker Creek Park,St. Petersburg,1 court,Pinellas,27.772318,-82.638609
Campbell Park Recreation Center,St. Petersburg,2 courts,Pinellas,27.772318,-82.638609
Fossil Park,St. Petersburg,6 courts,Pinellas,27.772318,-82.638609
Tierra Verde Community Association,St. Petersburg,2 courts,Pinellas,27.772318,-82.638609
YMCA at Lealman Exchange,St. Petersburg,2 courts,Pinellas,27.772318,-82.638609
Pasadena Community Church,St. Petersburg,2 courts,Pinellas,27.772318,-82.638609
Shore Acres Recreation Center,St. Petersburg,3 courts,Pinellas,27.772318,-82.638609
Fuller,St. Petersburg,8 courts,Pinellas,27.772318,-82.638609
Walter Fuller Recreation Center,St. Petersburg,4 courts,Pinellas,27.772318,-82.638609
YMCA Of Greater St. Petersburg,St. Petersburg,2 courts,Pinellas,27.772318,-82.638609
Crescent Lake Park,St. Petersburg,6 courts,Pinellas,27.772318,-82.638609
Roberts Recreation Center,St. Petersburg,3 courts,Pinellas,27.772318,-82.638609
Gladden Park Recreation Center,St. Petersburg,3 courts,Pinellas,27.772318,-82.638609
Lake Vista Recreation Center,St. Petersburg,3 courts,Pinellas,27.772318,-82.638609
J W Cate Recreation Center,St. Petersburg,8 courts,Pinellas,27.772318,-82.638609
Waterside North at Coquina Key,St. Petersburg,2 courts,Pinellas,27.772318,-82.638609
Kingsley Lake Park,Starke,1 court,Bradford,29.958299,-82.118518
North River Shores Tennis Club,Stuart,4 courts,Martin,27.196834,-80.253786
South River Condominiums,Stuart,2 courts,Martin,27.196834,-80.253786
Halpatiokee Park Tennis Center,Stuart,18 courts,Martin,27.196834,-80.253786
Stuart Yacht & Country Club,Stuart,2 courts,Martin,27.196834,-80.253786
YMCA of the Treasure Coast,Stuart,4 courts,Martin,27.196834,-80.253786
Wojcieszak Park,Stuart,1 court,Martin,27.196834,-80.253786
Powerhouse Gym Stuart,Stuart,2 courts,Martin,27.196834,-80.253786
Spruce Creek South,Summerfield,4 courts,Marion,28.9958,-82.0214
Del Webb Spruce Creek Golf And Country Club,Summerfield,12 courts,Marion,28.9958,-82.0214
Stonecrest Community,Summerfield,8 courts,Marion,28.9958,-82.0214
Sun City Center,Sun City Center,8 courts,Hillsborough,27.7205,-82.4333
Kings Point South Pickleball Courts,Sun City Center,4 courts,Hillsborough,27.7205,-82.4333
"The Dunmore Resort, Harbour Island",Surfside,2 courts,Miami-Dade,25.8784,-80.1256
Surfside Tennis Center,Surfside,2 courts,Miami-Dade,25.8784,-80.1256
Northside Community Center,Tallahassee,3 courts,Leon,30.428563,-84.259337
Tom Brown Tennis Center,Tallahassee,4 courts,Leon,30.428563,-84.259337
Sue Herndon McCollum Community Center,Tallahassee,2 courts,Leon,30.428563,-84.259337
Jake Gaither Community Center,Tallahassee,4 courts,Leon,30.428563,-84.259337
Lincoln Neighborhood Center,Tallahassee,2 courts,Leon,30.428563,-84.259337
Lawrence Gregory Community Center,Tallahassee,3 courts,Leon,30.428563,-84.259337
Walker-Ford Community Center,Tallahassee,5 courts,Leon,30.428563,-84.259337
Premier Health & Fitness Center,Tallahassee,3 courts,Leon,30.428563,-84.259337
Jack L. McLean Jr. Community Center,Tallahassee,4 courts,Leon,30.428563,-84.259337
Lafayette Park,Tallahassee,2 courts,Leon,30.428563,-84.259337
Tallahassee Senior Center,Tallahassee,2 courts,Leon,30.428563,-84.259337
Daniel B Chaires Park and Community Center,Tallahassee,4 courts,Leon,30.428563,-84.259337
Tamarac Community Center,Tamarac,6 courts,Broward,26.2129,-80.2498
Woodmont Country Club - Tamarac,Tamarac,4 courts,Broward,26.2129,-80.2498
Forest Hills Community Center,Tampa,0 courts,Hillsborough,27.9428,-82.4549
Cordelia B Hunt Center,Tampa,0 courts,Hillsborough,27.9428,-82.4549
Rowlett Park,Tampa,8 courts,Hillsborough,27.9428,-82.4549
Northdale Park,Tampa,7 courts,Hillsborough,27.9428,-82.4549
Loretta Ingraham Center,Tampa,0 courts,Hillsborough,27.9428,-82.4549
Copeland Park,Tampa,4 courts,Hillsborough,27.9428,-82.4549
Cuscaden Park,Tampa,6 courts,Hillsborough,27.9428,-82.4549
Madison Street Park,Tampa,1 court,Hillsborough,27.9428,-82.4549
Julian B Lane Riverfront Park,Tampa,6 courts,Hillsborough,27.9428,-82.4549
Westchase Park & Recreation Center,Tampa,3 courts,Hillsborough,27.9428,-82.4549
Martin Luther King Jr Center,Tampa,0 courts,Hillsborough,27.9428,-82.4549
Foster Park,Tampa,2 courts,Hillsborough,27.9428,-82.4549
Emanuel P. Johnson Recreation Center,Tampa,4 courts,Hillsborough,27.9428,-82.4549
South Tampa Family YMCA,Tampa,6 courts,Hillsborough,27.9428,-82.4549
SportsSpace Tampa,Tampa,3 courts,Hillsborough,27.9428,-82.4549
Police Athletic League,Tampa,0 courts,Hillsborough,27.9428,-82.4549
HCC Tennis & Pickleball Center,Tampa,11 courts,Hillsborough,27.9428,-82.4549
Northlakes Sports Complex,Tampa,8 courts,Hillsborough,27.9428,-82.4549
Port Tampa Community Center,Tampa,0 courts,Hillsborough,27.9428,-82.4549
New Tampa Family YMCA,Tampa,2 courts,Hillsborough,27.9428,-82.4549
South Pointe Alexis HOA,Tarpon Springs,3 courts,Pinellas,28.145833,-82.756944
Tarpon Tennis Club,Tarpon Springs,8 courts,Pinellas,28.145833,-82.756944
Tarpon Springs Recreation Department,Tarpon Springs,3 courts,Pinellas,28.145833,-82.756944
Royal Harbor Property,Tavares,4 courts,Lake,28.801027,-81.73405
Golden Triangle YMCA,Tavares,3 courts,Lake,28.801027,-81.73405
Temple Terrace Riverhills Pickleball Courts,Temple Terrace,4 courts,Hillsborough,28.0353,-82.3893
Temple Terrace Family Recreation Complex,Temple Terrace,6 courts,Hillsborough,28.0353,-82.3893
Bacall Pool & Recreation Center,The Villages,6 courts,Sumter,28.9335,-82.0046
Allamanda Pool & Recreation Center,The Villages,4 courts,Sumter,28.9335,-82.0046
Aviary,The Villages,6 courts,Sumter,28.9335,-82.0046
Hibiscus Pool & Recreation Center,The Villages,4 courts,Sumter,28.9335,-82.0046
Colony Cottage Pool & Recreation Center,The Villages,6 courts,Sumter,28.9335,-82.0046
Fish Hawk courts,The Villages,6 courts,Sumter,28.9335,-82.0046
Moyer Recreation Center,The Villages,4 courts,Sumter,28.9335,-82.0046
Mulberry Grove Pool & Recreation Center,The Villages,10 courts,Sumter,28.9335,-82.0046
El Santiago Pool & Recreation Center,The Villages,6 courts,Sumter,28.9335,-82.0046
DeLuna Recreation Center,The Villages,4 courts,Sumter,28.9335,-82.0046
Rohan Recreation Center,The Villages,18 courts,Sumter,28.9335,-82.0046
Saddlebrook Neighborhood Pool,The Villages,6 courts,Sumter,28.9335,-82.0046
Sawgrass,The Villages,6 courts,Sumter,28.9335,-82.0046
Coconut Cove Pool & Recreation Center,The Villages,6 courts,Sumter,28.9335,-82.0046
Seabreeze Courts,The Villages,6 courts,Sumter,28.9335,-82.0046
Spanish Moss,The Villages,6 courts,Sumter,28.9335,-82.0046
Captiva Pool & Recreation Center,The Villages,6 courts,Sumter,28.9335,-82.0046
Captiva,The Villages,6 courts,Sumter,28.9335,-82.0046
Manatee,The Villages,6 courts,Sumter,28.9335,-82.0046
Bradenton Pool & Recreation Center,The Villages,6 courts,Sumter,28.9335,-82.0046
Burnsed,The Villages,6 courts,Sumter,28.9335,-82.0046
Big Cypress,The Villages,6 courts,Sumter,28.9335,-82.0046
The Great Outdoors RV Resort,Titusville,6 courts,Brevard,28.569712,-80.819141
Titusville YMCA,Titusville,3 courts,Brevard,28.569712,-80.819141
St Teresa Catholic School,Titusville,4 courts,Brevard,28.569712,-80.819141
Singleton Courts,Titusville,6 courts,Brevard,28.569712,-80.819141
Treasure Bay Golf & Tennis,Treasure Island,5 courts,Pinellas,27.7692,-82.769
Venice Christian School Inc.,Venice,2 courts,Sarasota,27.0993,-82.4489
Hecksher Park,Venice,2 courts,Sarasota,27.0993,-82.4489
Woodmere Park,Venice,4 courts,Sarasota,27.0993,-82.4489
Venice Community Center,Venice,4 courts,Sarasota,27.0993,-82.4489
Bird Bay Village,Venice,5 courts,Sarasota,27.0993,-82.4489
Pinebrook Park,Venice,2 courts,Sarasota,27.0993,-82.4489
Foxworthy Campus / Bypass Park,Venice,10 courts,Sarasota,27.0993,-82.4489
Laurel park Nokomis,Venice,3 courts,Sarasota,27.0993,-82.4489
Bay Indies Resort Community,Venice,3 courts,Sarasota,27.0993,-82.4489
Pocahontas Park,Vero Beach,12 courts,Indian River,27.632985,-80.403075
South County Regional Park,Vero Beach,12 courts,Indian River,27.632985,-80.403075
Church of Jesus Christ of Latter-day Saints,Vero Beach,1 court,Indian River,27.632985,-80.403075
Vero Fitness,Vero Beach,6 courts,Indian River,27.632985,-80.403075
Vista Royale,Vero Beach,6 courts,Indian River,27.632985,-80.403075
Indian River County IG Center,Vero Beach,6 courts,Indian River,27.632985,-80.403075
Thousand Trails Peace River RV & Camping Resort,Wauchula,2 courts,Hardee,27.551742,-81.807388
Christian Church In The Wildwood,Weeki Wachee,3 courts,Hernando,28.5156,-82.5729
Firehouse Pickleball Courts,Welaka,3 courts,Putnam,29.478889,-81.671667
Arden,Wellington,2 courts,Palm Beach,26.6618,-80.2684
Okeeheelee Park,Wellington,6 courts,Palm Beach,26.6618,-80.2684
Greenview Shores Park,Wellington,4 courts,Palm Beach,26.6618,-80.2684
Wellington Boys and Girls Club,Wellington,0 courts,Palm Beach,26.6618,-80.2684
Wellington Village Park,Wellington,5 courts,Palm Beach,26.6618,-80.2684
Wesley Chapel District Park Recreation Center,Wesley Chapel,8 courts,Pasco,28.210365,-82.288956
Greenwood Village,West Melbourne,1 court,Brevard,28.0717,-80.6534
Suncoast Community High School,West Palm Beach,8 courts,Palm Beach,26.713956,-80.065874
Club Baywinds,West Palm Beach,4 courts,Palm Beach,26.713956,-80.065874
Howard Park Community Center,West Palm Beach,2 courts,Palm Beach,26.713956,-80.065874
Villages of Palm Beach Lakes,West Palm Beach,3 courts,Palm Beach,26.713956,-80.065874
Lake Lytal Park,West Palm Beach,6 courts,Palm Beach,26.713956,-80.065874
Westgate Park and Recreation Center,West Palm Beach,3 courts,Palm Beach,26.713956,-80.065874
Lilac Park,West Palm Beach,12 courts,Palm Beach,26.713956,-80.065874
The Club at Ibis,West Palm Beach,4 courts,Palm Beach,26.713956,-80.065874
Perini Park,West Palm Beach,3 courts,Palm Beach,26.713956,-80.065874
Green Acres Freedom Park,West Palm Beach,4 courts,Palm Beach,26.713956,-80.065874
Okeeheelee Park,West Palm Beach,6 courts,Palm Beach,26.713956,-80.065874
Century Village West Palm Beach,West Palm Beach,4 courts,Palm Beach,26.713956,-80.065874
Cresswind Palm Beach at Westlake,Westlake,8 courts,Palm Beach,26.747,-80.3077
Weston Racquet Club,Weston,4 courts,Palm Beach,26.1004,-80.3998
Weston Regional Park,Weston,4 courts,Palm Beach,26.1004,-80.3998
Weston Regional Park - Basketball Courts,Weston,8 courts,Palm Beach,26.1004,-80.3998
Bonaventure Town Center Club,Weston,2 courts,Palm Beach,26.1004,-80.3998
Markham Park,Weston,4 courts,Palm Beach,26.1004,-80.3998
Midtown Athletic Club,Weston,4 courts,Palm Beach,26.1004,-80.3998
Cattail,Wildwood,2 courts,Sumter,28.845353,-82.03473
Homestead,Wildwood,6 courts,Sumter,28.845353,-82.03473
Everglades Recreation Complex,Wildwood,12 courts,Sumter,28.845353,-82.03473
Water Lily,Wildwood,6 courts,Sumter,28.845353,-82.03473
Riverbend Recreation Center,Wildwood,6 courts,Sumter,28.845353,-82.03473
Ezell,Wildwood,9 courts,Sumter,28.845353,-82.03473
Williston Crossings RV Resort,Williston,4 courts,Levy,29.397737,-82.485601
Manor Grove Village Four,Wilton Manors,4 courts,Broward,26.1604,-80.1389
Hagen Park Community Center,Wilton Manors,4 courts,Broward,26.1604,-80.1389
Valencia Lakes,Wimauma,7 courts,Hillsborough,27.701497,-82.315136
Veterans Memorial Park,Winter Garden,10 courts,Orange,28.4867,-81.6051
West Orange Recreation Center,Winter Garden,2 courts,Orange,28.4867,-81.6051
Winter Haven City Tennis Center,Winter Haven,4 courts,Polk,27.999296,-81.751507
Faith Baptist Church,Winter Haven,3 courts,Polk,27.999296,-81.751507
Four Lakes Golf Club,Winter Haven,2 courts,Polk,27.999296,-81.751507
Lake Ashton Golf Club,Winter Haven,4 courts,Polk,27.999296,-81.751507
Cady Way Recreation Center,Winter Park,6 courts,Orange,28.597824,-81.353436
Phelps Park,Winter Park,2 courts,Orange,28.597824,-81.353436
Goldenrod Recreation Center,Winter Park,6 courts,Orange,28.597824,-81.353436
Wedgewood Tennis Villas,Winter Springs,8 courts,Seminole,28.683097,-81.281367
Trotwood Park,Winter Springs,4 courts,Seminole,28.683097,-81.281367
Lake View at Grand Oaks,World Golf Village,2 courts,St. Johns,29.9917,-81.4705
Zellwood Properties,Zellwood,2 courts,Orange,28.71944,-81.576174
East Pasco YMCA,Zephyrhills,2 courts,Pasco,28.2333,-82.1813
Betmar Acres Courts,Zephyrhills,8 courts,Pasco,28.2333,-82.1813
Sarah Vande Berg Tennis Center,Zephyrhills,8 courts,Pasco,28.2333,-82.1813
Southern Charm RV Resort,Zephyrhills,6 courts,Pasco,28.2333,-82.1813
Meadow Pointe,Zephyrhills,3 courts,Pasco,28.2333,-82.1813
Lake Bernadette,Zephyrhills,1 court,Pasco,28.2333,-82.1813
Zephyr Park,Zephyrhills,1 court,Pasco,28.2333,-82.1813
